start=new Date('2022-06-11T00:00:00.000Z').valueOf();
sats=[{"DECAY_DATE":null,"EPOCH":"2022-06-10T19:26:26.572992","REV_AT_EPOCH":"6653","TIME_SYSTEM":"UTC","CENTER_NAME":"EARTH","RCS_SIZE":"LARGE","OBJECT_ID":"2021-027AL","MEAN_MOTION":"15.06396016","RA_OF_ASC_NODE":"172.2633","NORAD_CAT_ID":"48126","BSTAR":"0.00008326900000","PERIOD":"95.592","LAUNCH_DATE":"2021-04-07","OBJECT_NAME":"STARLINK-2467","TLE_LINE1":"1 48126U 21027AL  22161.81002978  .00000959  00000-0  83269-4 0  9995","ECCENTRICITY":"0.00018080","COUNTRY_CODE":"US","OBJECT_TYPE":"PAYLOAD","SEMIMAJOR_AXIS":"6925.361","EPHEMERIS_TYPE":"0","INCLINATION":"53.0542","MEAN_ELEMENT_THEORY":"SGP4","ELEMENT_SET_NO":"999","FILE":"3490466","PERIAPSIS":"545.974","REF_FRAME":"TEME","MEAN_MOTION_DOT":"0.00000959","TLE_LINE2":"2 48126  53.0542 172.2633 0001808  61.7491 298.3680 15.06396016 66534","APOAPSIS":"548.478","MEAN_MOTION_DDOT":"0.0000000000000","MEAN_ANOMALY":"298.3680","SITE":"AFETR","GP_ID":"205863720","CLASSIFICATION_TYPE":"U","ARG_OF_PERICENTER":"61.7491"},{"RCS_SIZE":"LARGE","EPOCH":"2022-06-10T19:13:09.475104","DECAY_DATE":null,"REV_AT_EPOCH":"6624","TIME_SYSTEM":"UTC","CENTER_NAME":"EARTH","RA_OF_ASC_NODE":"192.3193","OBJECT_ID":"2021-027AM","MEAN_MOTION":"15.06398755","BSTAR":"0.00009161500000","LAUNCH_DATE":"2021-04-07","PERIOD":"95.592","NORAD_CAT_ID":"48127","OBJECT_TYPE":"PAYLOAD","ECCENTRICITY":"0.00020320","TLE_LINE1":"1 48127U 21027AM  22161.80080411  .00001083  00000-0  91615-4 0  9996","OBJECT_NAME":"STARLINK-2468","COUNTRY_CODE":"US","EPHEMERIS_TYPE":"0","SEMIMAJOR_AXIS":"6925.352","MEAN_ELEMENT_THEORY":"SGP4","INCLINATION":"53.0541","PERIAPSIS":"545.810","REF_FRAME":"TEME","TLE_LINE2":"2 48127  53.0541 192.3193 0002032  42.7252 317.3894 15.06398755 66241","MEAN_MOTION_DOT":"0.00001083","FILE":"3490466","ELEMENT_SET_NO":"999","APOAPSIS":"548.625","MEAN_MOTION_DDOT":"0.0000000000000","MEAN_ANOMALY":"317.3894","SITE":"AFETR","ARG_OF_PERICENTER":"42.7252","GP_ID":"205863971","CLASSIFICATION_TYPE":"U"},{"SEMIMAJOR_AXIS":"6925.368","EPHEMERIS_TYPE":"0","INCLINATION":"53.0555","MEAN_ELEMENT_THEORY":"SGP4","PERIAPSIS":"546.053","REF_FRAME":"TEME","MEAN_MOTION_DOT":"-0.00000279","TLE_LINE2":"2 48128  53.0555 122.1881 0001704  64.5426 295.5739 15.06393657 67222","ELEMENT_SET_NO":"999","FILE":"3490466","APOAPSIS":"548.413","MEAN_MOTION_DDOT":"0.0000000000000","MEAN_ANOMALY":"295.5739","SITE":"AFETR","ARG_OF_PERICENTER":"64.5426","GP_ID":"205862720","CLASSIFICATION_TYPE":"U","RCS_SIZE":"LARGE","EPOCH":"2022-06-10T20:20:51.402624","DECAY_DATE":null,"REV_AT_EPOCH":"6722","CENTER_NAME":"EARTH","TIME_SYSTEM":"UTC","RA_OF_ASC_NODE":"122.1881","OBJECT_ID":"2021-027AN","MEAN_MOTION":"15.06393657","BSTAR":"0.00000018805000","PERIOD":"95.593","LAUNCH_DATE":"2021-04-07","NORAD_CAT_ID":"48128","OBJECT_TYPE":"PAYLOAD","TLE_LINE1":"1 48128U 21027AN  22161.84781716 -.00000279  00000-0  18805-6 0  9996","ECCENTRICITY":"0.00017040","OBJECT_NAME":"STARLINK-2469","COUNTRY_CODE":"US"},{"RA_OF_ASC_NODE":"192.3500","OBJECT_ID":"2021-027AP","MEAN_MOTION":"15.06392489","RCS_SIZE":"LARGE","DECAY_DATE":null,"EPOCH":"2022-06-10T19:02:34.280448","REV_AT_EPOCH":"6624","TIME_SYSTEM":"UTC","CENTER_NAME":"EARTH","OBJECT_TYPE":"PAYLOAD","TLE_LINE1":"1 48129U 21027AP  22161.79345232 -.00000432  00000-0 -10131-4 0  9994","ECCENTRICITY":"0.00016300","OBJECT_NAME":"STARLINK-2471","COUNTRY_CODE":"US","BSTAR":"-0.00001013100000","LAUNCH_DATE":"2021-04-07","PERIOD":"95.593","NORAD_CAT_ID":"48129","REF_FRAME":"TEME","PERIAPSIS":"546.108","TLE_LINE2":"2 48129  53.0539 192.3500 0001630  55.5463 304.5680 15.06392489 66240","MEAN_MOTION_DOT":"-0.00000432","FILE":"3490466","ELEMENT_SET_NO":"999","EPHEMERIS_TYPE":"0","SEMIMAJOR_AXIS":"6925.372","MEAN_ELEMENT_THEORY":"SGP4","INCLINATION":"53.0539","ARG_OF_PERICENTER":"55.5463","GP_ID":"205862969","CLASSIFICATION_TYPE":"U","MEAN_MOTION_DDOT":"0.0000000000000","APOAPSIS":"548.365","MEAN_ANOMALY":"304.5680","SITE":"AFETR"},{"ELEMENT_SET_NO":"999","FILE":"3490035","MEAN_MOTION_DOT":"-0.00000674","TLE_LINE2":"2 48130  53.0540 198.5871 0001491  55.3428 304.7701 15.06390745 65739","REF_FRAME":"TEME","PERIAPSIS":"546.209","MEAN_ELEMENT_THEORY":"SGP4","INCLINATION":"53.0540","SEMIMAJOR_AXIS":"6925.377","EPHEMERIS_TYPE":"0","CLASSIFICATION_TYPE":"U","GP_ID":"205831036","ARG_OF_PERICENTER":"55.3428","SITE":"AFETR","MEAN_ANOMALY":"304.7701","APOAPSIS":"548.274","MEAN_MOTION_DDOT":"0.0000000000000","MEAN_MOTION":"15.06390745","OBJECT_ID":"2021-027AQ","RA_OF_ASC_NODE":"198.5871","REV_AT_EPOCH":"6573","TIME_SYSTEM":"UTC","CENTER_NAME":"EARTH","DECAY_DATE":null,"EPOCH":"2022-06-10T12:25:06.347712","RCS_SIZE":"LARGE","COUNTRY_CODE":"US","TLE_LINE1":"1 48130U 21027AQ  22161.51743458 -.00000674  00000-0 -26364-4 0  9991","ECCENTRICITY":"0.00014910","OBJECT_NAME":"STARLINK-2472","OBJECT_TYPE":"PAYLOAD","NORAD_CAT_ID":"48130","PERIOD":"95.593","LAUNCH_DATE":"2021-04-07","BSTAR":"-0.00002636400000"},{"RA_OF_ASC_NODE":"172.5932","MEAN_MOTION":"15.06386594","OBJECT_ID":"2021-027AR","RCS_SIZE":"LARGE","REV_AT_EPOCH":"6651","CENTER_NAME":"EARTH","TIME_SYSTEM":"UTC","EPOCH":"2022-06-10T17:40:18.106752","DECAY_DATE":null,"OBJECT_TYPE":"PAYLOAD","COUNTRY_CODE":"US","OBJECT_NAME":"STARLINK-2473","TLE_LINE1":"1 48131U 21027AR  22161.73632068 -.00000934  00000-0 -43829-4 0  9994","ECCENTRICITY":"0.00015680","PERIOD":"95.593","LAUNCH_DATE":"2021-04-07","BSTAR":"-0.00004382900000","NORAD_CAT_ID":"48131","MEAN_MOTION_DOT":"-0.00000934","TLE_LINE2":"2 48131  53.0532 172.5932 0001568  57.2205 302.8935 15.06386594 66512","REF_FRAME":"TEME","PERIAPSIS":"546.169","ELEMENT_SET_NO":"999","FILE":"3490466","MEAN_ELEMENT_THEORY":"SGP4","INCLINATION":"53.0532","SEMIMAJOR_AXIS":"6925.390","EPHEMERIS_TYPE":"0","ARG_OF_PERICENTER":"57.2205","CLASSIFICATION_TYPE":"U","GP_ID":"205863472","SITE":"AFETR","MEAN_ANOMALY":"302.8935","APOAPSIS":"548.341","MEAN_MOTION_DDOT":"0.0000000000000"},{"MEAN_MOTION":"15.06398430","OBJECT_ID":"2021-027AS","RA_OF_ASC_NODE":"192.4053","REV_AT_EPOCH":"6623","CENTER_NAME":"EARTH","TIME_SYSTEM":"UTC","DECAY_DATE":null,"EPOCH":"2022-06-10T18:46:37.563744","RCS_SIZE":"LARGE","COUNTRY_CODE":"US","ECCENTRICITY":"0.00014240","TLE_LINE1":"1 48132U 21027AS  22161.78237921  .00000156  00000-0  29363-4 0  9990","OBJECT_NAME":"STARLINK-2474","OBJECT_TYPE":"PAYLOAD","NORAD_CAT_ID":"48132","PERIOD":"95.592","LAUNCH_DATE":"2021-04-07","BSTAR":"0.00002936300000","ELEMENT_SET_NO":"999","FILE":"3490466","MEAN_MOTION_DOT":"0.00000156","TLE_LINE2":"2 48132  53.0540 192.4053 0001424  58.3002 301.8125 15.06398430 66236","PERIAPSIS":"546.232","REF_FRAME":"TEME","MEAN_ELEMENT_THEORY":"SGP4","INCLINATION":"53.0540","SEMIMAJOR_AXIS":"6925.353","EPHEMERIS_TYPE":"0","CLASSIFICATION_TYPE":"U","GP_ID":"205862221","ARG_OF_PERICENTER":"58.3002","SITE":"AFETR","MEAN_ANOMALY":"301.8125","MEAN_MOTION_DDOT":"0.0000000000000","APOAPSIS":"548.205"},{"LAUNCH_DATE":"2021-04-07","PERIOD":"95.593","BSTAR":"-0.00000622110000","NORAD_CAT_ID":"48133","OBJECT_TYPE":"PAYLOAD","COUNTRY_CODE":"US","OBJECT_NAME":"STARLINK-2475","TLE_LINE1":"1 48133U 21027AT  22161.77870466 -.00000374  00000-0 -62211-5 0  9991","ECCENTRICITY":"0.00015630","RCS_SIZE":"LARGE","REV_AT_EPOCH":"6624","CENTER_NAME":"EARTH","TIME_SYSTEM":"UTC","EPOCH":"2022-06-10T18:41:20.082624","DECAY_DATE":null,"RA_OF_ASC_NODE":"192.4215","MEAN_MOTION":"15.06388793","OBJECT_ID":"2021-027AT","MEAN_ANOMALY":"300.0032","SITE":"AFETR","APOAPSIS":"548.330","MEAN_MOTION_DDOT":"0.0000000000000","ARG_OF_PERICENTER":"60.1113","CLASSIFICATION_TYPE":"U","GP_ID":"205862471","INCLINATION":"53.0539","MEAN_ELEMENT_THEORY":"SGP4","EPHEMERIS_TYPE":"0","SEMIMAJOR_AXIS":"6925.383","TLE_LINE2":"2 48133  53.0539 192.4215 0001563  60.1113 300.0032 15.06388793 66243","MEAN_MOTION_DOT":"-0.00000374","REF_FRAME":"TEME","PERIAPSIS":"546.165","FILE":"3490466","ELEMENT_SET_NO":"999"},{"MEAN_ELEMENT_THEORY":"SGP4","INCLINATION":"53.0544","SEMIMAJOR_AXIS":"6925.353","EPHEMERIS_TYPE":"0","MEAN_MOTION_DOT":"0.00001133","TLE_LINE2":"2 48134  53.0544 194.2703 0001589  63.0613 297.0538 15.06398505 66177","REF_FRAME":"TEME","PERIAPSIS":"546.118","ELEMENT_SET_NO":"999","FILE":"3489795","SITE":"AFETR","MEAN_ANOMALY":"297.0538","APOAPSIS":"548.319","MEAN_MOTION_DDOT":"0.0000000000000","ARG_OF_PERICENTER":"63.0613","CLASSIFICATION_TYPE":"U","GP_ID":"205822987","RCS_SIZE":"LARGE","REV_AT_EPOCH":"6617","TIME_SYSTEM":"UTC","CENTER_NAME":"EARTH","DECAY_DATE":null,"EPOCH":"2022-06-10T08:46:50.781792","RA_OF_ASC_NODE":"194.2703","MEAN_MOTION":"15.06398505","OBJECT_ID":"2021-027AU","PERIOD":"95.592","LAUNCH_DATE":"2021-04-07","BSTAR":"0.00009492900000","NORAD_CAT_ID":"48134","OBJECT_TYPE":"PAYLOAD","COUNTRY_CODE":"US","TLE_LINE1":"1 48134U 21027AU  22161.36586553  .00001133  00000-0  94929-4 0  9990","OBJECT_NAME":"STARLINK-2476","ECCENTRICITY":"0.00015890"},{"OBJECT_TYPE":"PAYLOAD","OBJECT_NAME":"STARLINK-2478","TLE_LINE1":"1 48135U 21027AV  22161.82431243 -.00000691  00000-0 -29827-4 0  9992","ECCENTRICITY":"0.00016780","COUNTRY_CODE":"US","BSTAR":"-0.00002982700000","LAUNCH_DATE":"2021-04-07","PERIOD":"95.747","NORAD_CAT_ID":"48135","RA_OF_ASC_NODE":"197.2932","OBJECT_ID":"2021-027AV","MEAN_MOTION":"15.03958965","RCS_SIZE":"LARGE","DECAY_DATE":null,"EPOCH":"2022-06-10T19:47:00.593952","REV_AT_EPOCH":"6617","TIME_SYSTEM":"UTC","CENTER_NAME":"EARTH","ARG_OF_PERICENTER":"67.3047","GP_ID":"205863972","CLASSIFICATION_TYPE":"U","MEAN_MOTION_DDOT":"0.0000000000000","APOAPSIS":"555.868","MEAN_ANOMALY":"292.8118","SITE":"AFETR","REF_FRAME":"TEME","PERIAPSIS":"553.542","TLE_LINE2":"2 48135  53.0549 197.2932 0001678  67.3047 292.8118 15.03958965 66173","MEAN_MOTION_DOT":"-0.00000691","FILE":"3490466","ELEMENT_SET_NO":"999","EPHEMERIS_TYPE":"0","SEMIMAJOR_AXIS":"6932.840","MEAN_ELEMENT_THEORY":"SGP4","INCLINATION":"53.0549"}];
